{
  "norad_id": 55841,
  "name": "LUCH-5X (OLYMP-K 2)",
  "history": [
    {
      "epoch": "2026-03-28T15:22:20.128800Z",
      "apogee_km": 35793.18363967093,
      "perigee_km": 35780.87141162945,
      "latitude_deg": -0.0030602714545417127,
      "longitude_deg": 61.97920155236722,
      "height_km": 35788.11773613301,
      "semi_major_axis_km": 42165.164525650194,
      "eccentricity": 0.000146,
      "inclination_deg": 0.0319,
      "raan_deg": 81.8631,
      "arg_perigee_deg": 142.0985,
      "mean_anomaly_deg": 254.6522,
      "mean_motion_rev_day": 1.00270242
    }
  ]
}